Uranus;Earth_x_effect_end_km_s2;-3.368945022438245e-13;-3.337951913825673e-13;3.099310861257225e-15;-3.4154346853571035e-13;-3.2914622509068145e-13;27
Uranus;mars_x_effect_end_km_s2;-6.311971955391389e-18;-6.048819874430506e-18;2.631520809608831e-19;-6.706700076832714e-18;-5.6540917529891816e-18;27
Uranus;Moon_x_effect_end_km_s2;1.5378706842597903e-08;1.5579442458786623e-08;2.0073561618872004e-10;1.5077603418314825e-08;1.5880545883069705e-08;27
Uranus;Jupiter_x_effect_end_km_s2;3.576381002910077e-14;4.0446481331327326e-14;4.682671302226557e-15;2.873980307576093e-14;4.747048828466716e-14;0
Uranus;Saturn_x_effect_end_km_s2;4.3185640863542247e-14;4.973778447766619e-14;6.5521436141239425e-15;3.335742544235633e-14;5.956599989885211e-14;0
Uranus;Uranus_x_effect_end_km_s2;4.3178749327118655e-15;4.746987614738711e-15;4.2911268202684546e-16;3.674205909671597e-15;5.390656637778979e-15;10
Uranus;Neptune_x_effect_end_km_s2;5.310810320994305e-16;6.11840831340303e-16;8.075979924087254e-17;4.099413332381217e-16;7.329805302016118e-16;0
Uranus;Pluto_x_effect_end_km_s2;9.319030214536588e-12;9.46666895196151e-12;1.476387374249221e-13;9.097572108399205e-12;9.688127058098894e-12;16
Uranus;Sun_y_effect_end_km_s2;1.1681244667700408e-11;1.2739572778664868e-11;1.05832811096446e-12;1.0093752501253717e-11;1.4327064945111557e-11;27
Uranus;mercury_y_effect_end_km_s2;0.0;0.0;0.0;0.0;0.0;0
Uranus;Venus_y_effect_end_km_s2;1.832796370917571e-13;1.950455770140878e-13;1.1765939922330682e-14;1.6563072720826107e-13;2.126944868975838e-13;27
Uranus;Earth_y_effect_end_km_s2;1.6007140412192778e-17;1.636291390063521e-17;3.557734884424319e-19;1.547348017952913e-17;1.6896574133298856e-17;27
Uranus;Mars_y_effect_end_km_s2;2.7364532006475363e-13;8.020193399814482e-12;7.746548079749728e-12;-1.134617679955984e-11;1.9640015519439076e-11;27
Uranus;Moon_y_effect_end_km_s2;-1.3716890249739893e-17;8.98264738958966e-17;1.0354336414563649e-16;-1.6903193646819462e-16;2.451415201143513e-16;0
Uranus;Jupiter_y_effect_end_km_s2;5.5398006070088735e-19;2.83598627181193e-17;2.780588265741841e-17;-4.115484392542673e-17;7.006868670424693e-17;27
Uranus;Saturn_y_effect_end_km_s2;-8.561097556908448e-19;9.341902073881645e-18;1.019801182957249e-17;-1.615312750004958e-17;2.463891981824038e-17;0
Uranus;Uranus_y_effect_end_km_s2;1.2717557971152167e-20;3.453353769576351e-19;3.3261781898648293e-19;-4.862091705085722e-19;8.442621054373595e-19;27
Uranus;Neptune_y_effect_end_km_s2;-5.2811269778899545e-14;-4.054651078596584e-14;1.2264758992933704e-14;-7.12084082683001e-14;-2.2149372296565285e-14;27
Uranus;Pluto_y_effect_end_km_s2;3.535809025122261e-13;3.8618247863161833e-13;3.2601576119392244e-14;3.046785383331377e-13;4.350848428107067e-13;11
Uranus;Sun_z_effect_end_km_s2;0.0;0.0;0.0;0.0;0.0;0
Uranus;Mercury_z_effect_end_km_s2;1.0646645271024772e-14;1.0747096815443631e-14;1.0045154441885958e-16;1.0495967954396482e-14;1.089777413207192e-14;27
Venus;tof_days_d;157.82011487088013;229.79569448586224;71.97557961498211;49.85674544840697;337.7590639083354;0
Venus;delta_v_km_s;16.511575484893125;17.568426534219604;1.0568510493264789;14.926298910903407;19.15370310820932;0
Venus;r1_x_geocentric_km;-4949.27120726187;2612.925726278565;7562.196933540435;-16292.56660757252;13956.221126589217;0
Venus;r1_y_geocentric_km;-3264.085507867627;4864.454390109884;8128.539897977511;-15456.895354833892;17057.26423707615;0
Venus;r1_z_geocentric_km;-3050.874240034607;3075.623664582153;6126.49790461676;-12240.621096959747;12265.370521507293;0
Venus;orbit_altitude_km;918.9200736209388;1677.1954351051386;758.2753614841998;-218.49296860536094;2814.6084773314383;0
Venus;semi_major_axis_km;7297.056673620938;8055.332035105138;758.2753614841995;6159.64363139464;9192.745077331438;0
Venus;eccentricity;0.0286706234713636;0.0797927389731921;0.0511221155018285;-0.04801254978137915;0.15647591222593485;0
Venus;arg_periapsis_deg;103.90132736514883;265.9719804379964;162.0706530728476;-139.20465224412257;509.0779600472678;0
Venus;raan_deg;121.69841263277796;281.1757714843838;159.47735885160586;-117.51762564463083;520.3918097617926;0
Venus;inclination_deg;51.57119634646197;136.94749847846958;85.37630213200762;-76.49325685154949;265.01195167648103;0
Venus;mean_anomaly_deg;81.57257653224053;250.58984727681616;169.01727074457563;-171.9533295846229;504.1157533936796;0
Venus;eccentric_anomaly_deg;87.21250579832014;249.19794689771084;161.9854410993907;-155.7656558507659;492.17610854679685;0
Venus;true_anomaly_deg;92.87519666369268;247.81227465033044;154.93707798663775;-139.53042031626393;480.21789163028706;0
Venus;r1_x_km;-135700614.9582134;-78551686.74815023;57148928.21006316;-221424007.27330813;7171705.56694451;15
Venus;r1_y_km;43411162.4430667;101352734.929161;57941572.486094296;-43501196.28607474;188265093.65830243;12
Venus;r1_z_km;18840130.002751622;43962265.32954257;25122135.326790947;-18843072.9874348;81645468.319729;12
Venus;v1_x_km_s;-22.957294442407427;-10.13924594418322;12.818048498224208;-42.18436718974374;9.087826803153092;12
Venus;v1_y_km_s;-25.077645591260826;-14.52613164864663;10.551513942614196;-40.90491650518212;1.3011392652746654;15
Venus;v1_z_km_s;-10.87080914611584;-6.296018821688541;4.574790324427299;-17.73299463275679;0.5661666649524077;15
Venus;v1_magnitude_km_s;30.0371535173238;30.234769548957235;0.19761603163343366;29.74072946987365;30.531193596407384;15
Venus;r2_x_km;94948106.276971;107614756.75115918;12666650.474188179;75948130.56568873;126614732.46244144;15
Venus;r2_y_km;-1904518.7515012994;50956219.2826847;52860738.034186;-81195625.8027803;130247326.33396369;0
Venus;r2_z_km;-6128259.183212439;-4763583.4428501725;1364675.740362266;-8175272.793755838;-2716569.8323067734;15
Venus;v2_x_km_s;-16.82878363033203;0.20261366819122406;17.031397298523252;-42.37587957811691;25.7497096159761;0
Venus;v2_y_km_s;30.620156798489013;34.786623841242736;4.166467042753723;24.37045623435843;41.03632440537332;15
Venus;v2_z_km_s;0.44770159070828935;1.39208345732677;0.9443818666184807;-0.9688712092194316;2.8086562572544906;0
Venus;v2_magnitude_km_s;34.87247683662512;34.967697339012;0.09522050238687996;34.7296460830448;35.11052809259232;15
Venus;r1_with_gravity_corrected_x_km;-135700614.95821893;-78551686.74815346;57148928.21006547;-221424007.27331713;7171705.566944733;15
Venus;r1_with_gravity_corrected_y_km;43411162.4430685;101352734.92916524;57941572.48609675;-43501196.28607663;188265093.65831035;12
Venus;r1_with_gravity_corrected_z_km;18840130.002752397;43962265.3295444;25122135.326792005;-18843072.987435613;81645468.31973241;12
Venus;r1_total_corrected_x_km;-135700614.95821893;-78551686.74815346;57148928.21006547;-221424007.27331713;7171705.566944733;15
Venus;r1_total_corrected_y_km;43411162.4430685;101352734.92916524;57941572.48609675;-43501196.28607663;188265093.65831035;12
Venus;r1_total_corrected_z_km;18840130.002752397;43962265.3295444;25122135.326792005;-18843072.987435613;81645468.31973241;12
Venus;v1_transfer_x_km_s;-20.777747072941413;-12.331577475837552;8.44616959710386;-33.44700146859721;0.33767691981823944;15
Venus;v1_transfer_y_km_s;-24.306448879582756;-13.48086784524545;10.825581034337306;-40.544820431088716;2.7575037062605094;15
Venus;v1_transfer_z_km_s;-4.67962795106209;-0.5567622062791995;4.1228657447828905;-10.863926568236426;5.627536410895136;0
Venus;r2_total_corrected_x_km;94948106.27698092;107614756.75117038;12666650.47418946;75948130.56569673;126614732.46245457;15
Venus;r2_total_corrected_y_km;-1904518.751501428;50956219.28269009;52860738.03419152;-81195625.8027887;130247326.33397737;0
Venus;r2_total_corrected_z_km;-6128259.183213075;-4763583.442850671;1364675.740362404;-8175272.793756681;-2716569.832307065;15
Venus;v2_transfer_x_km_s;-19.04286334864222;3.5583495918567256;22.601212940498947;-52.94468275939064;37.46016900260514;0
Venus;v2_transfer_y_km_s;32.89216055384776;35.53882722812388;2.646666674276119;28.92216054243358;39.50882723953806;19
Venus;v2_transfer_z_km_s;5.091477487976645;12.314947520046521;7.223470032069876;-5.743727560128169;23.150152568151334;12
Venus;delta_r1_with_gravity_x_km;-5.543231964111328e-06;-3.2335519790649414e-06;2.3096799850463867e-06;-9.007751941680908e-06;2.3096799850463867e-07;15
Venus;delta_r1_with_gravity_y_km;1.8030405044555664e-06;4.231929779052734e-06;2.428889274597168e-06;-1.8402934074401855e-06;7.875263690948486e-06;12
Venus;delta_r1_with_gravity_z_km;7.674098014831543e-07;1.8253922462463377e-06;1.0579824447631834e-06;-8.195638656616207e-07;3.4123659133911124e-06;12
Venus;delta_r1_x_km;-5.543231964111328e-06;-3.2335519790649414e-06;2.3096799850463867e-06;-9.007751941680908e-06;2.3096799850463867e-07;15
Venus;delta_r1_y_km;1.8030405044555664e-06;4.231929779052734e-06;2.428889274597168e-06;-1.8402934074401855e-06;7.875263690948486e-06;12
Venus;delta_r1_z_km;7.674098014831543e-07;1.8253922462463377e-06;1.0579824447631834e-06;-8.195638656616207e-07;3.4123659133911124e-06;12
Venus;delta_r2_x_km;9.92417335510254e-06;1.119077205657959e-05;1.266598701477049e-06;8.024275302886966e-06;1.3090670108795163e-05;15
Venus;delta_r2_y_km;-1.2828968465328222e-07;5.394220352172852e-06;5.5225100368261346e-06;-8.412054739892484e-06;1.3677985407412056e-05;0
Venus;delta_r2_z_km;-6.360933184623718e-07;-4.98257577419281e-07;1.3783574104309082e-07;-8.428469300270081e-07;-2.915039658546448e-07;15
Venus;ax_J2_km_s2;1.3059340575733075e-23;4.377381320073751e-23;3.071447262500444e-23;-3.301236836177358e-23;8.984552213824417e-23;0
Venus;ay_J2_km_s2;-2.105084592414296e-23;-1.2498244123878445e-23;8.552601800264516e-24;-3.3879748624539734e-23;3.3065857651832978e-25;15
Venus;az_J2_km_s2;-4.256308908241176e-23;-2.0150207053103684e-23;2.2412882029308074e-23;-7.618241212637387e-23;1.3469115990858424e-23;15
Venus;a_J2_magnitude_km_s2;5.15471878213435e-23;5.340401856260256e-23;1.8568307412590553e-24;4.876194170945492e-23;5.618926467449114e-23;12
Venus;ax_J3_km_s2;6.793250467689789e-32;2.9621280022577623e-31;2.2828029554887837e-31;-2.7448793864641963e-31;6.386332435490938e-31;0
